[{"OBJECT_NAME":"CUBEBUG-2 (LO-74)","OBJECT_ID":"2013-066AA","EPOCH":"2026-03-09T19:57:37.220256","MEAN_MOTION":14.92958446,"ECCENTRICITY":0.00587054,"INCLINATION":97.8812,"RA_OF_ASC_NODE":17.505,"ARG_OF_PERICENTER":358.4894,"MEAN_ANOMALY":1.6138,"EPHEMERIS_TYPE":0,"CLASSIFICATION_TYPE":"U","NORAD_CAT_ID":39440,"ELEMENT_SET_NO":999,"REV_AT_EPOCH":66216,"BSTAR":0.0005932098,"MEAN_MOTION_DOT":6.31e-5,"MEAN_MOTION_DDOT":0},{"OBJECT_NAME":"SL-24 R\/B","OBJECT_ID":"2013-042B","EPOCH":"2026-03-09T12:40:44.242176","MEAN_MOTION":14.08721534,"ECCENTRICITY":0.04493882,"INCLINATION":97.5179,"RA_OF_ASC_NODE":292.5098,"ARG_OF_PERICENTER":125.3337,"MEAN_ANOMALY":239.0716,"EPHEMERIS_TYPE":0,"CLASSIFICATION_TYPE":"U","NORAD_CAT_ID":39228,"ELEMENT_SET_NO":999,"REV_AT_EPOCH":64027,"BSTAR":0.00010261222,"MEAN_MOTION_DOT":4.15e-6,"MEAN_MOTION_DDOT":0}]
